CCSDS_OMM_VERS = 2.0
CREATION_DATE  = 
ORIGINATOR     = 

OBJECT_NAME    = GSLV R/B
OBJECT_ID      = 2022-138AN
CENTER_NAME    = EARTH
REF_FRAME      = TEME
TIME_SYSTEM    = UTC
MEAN_ELEMENT_THEORY = SGP/SGP4

EPOCH          = 2026-03-01T19:57:37.227168
MEAN_MOTION    = 14.96704323
ECCENTRICITY   = .00218578
INCLINATION    = 87.3881
RA_OF_ASC_NODE = 168.9916
ARG_OF_PERICENTER = 173.9903
MEAN_ANOMALY   = 186.1596

EPHEMERIS_TYPE = 0
CLASSIFICATION_TYPE = U
NORAD_CAT_ID   = 54149
ELEMENT_SET_NO = 999
REV_AT_EPOCH   = 18275
BSTAR          = .39840556E-3
MEAN_MOTION_DOT = .4597E-4
MEAN_MOTION_DDOT = 0

CCSDS_OMM_VERS = 2.0
CREATION_DATE  = 
ORIGINATOR     = 

OBJECT_NAME    = XRISM
OBJECT_ID      = 2023-137A
CENTER_NAME    = EARTH
REF_FRAME      = TEME
TIME_SYSTEM    = UTC
MEAN_ELEMENT_THEORY = SGP/SGP4

EPOCH          = 2026-03-01T23:31:14.713824
MEAN_MOTION    = 15.11390395
ECCENTRICITY   = .00082334
INCLINATION    = 31.0034
RA_OF_ASC_NODE = 333.5263
ARG_OF_PERICENTER = 321.1150
MEAN_ANOMALY   = 38.8896

EPHEMERIS_TYPE = 0
CLASSIFICATION_TYPE = U
NORAD_CAT_ID   = 57800
ELEMENT_SET_NO = 999
REV_AT_EPOCH   = 13662
BSTAR          = .40252232E-3
MEAN_MOTION_DOT = .7068E-4
MEAN_MOTION_DDOT = 0

CCSDS_OMM_VERS = 2.0
CREATION_DATE  = 
ORIGINATOR     = 

OBJECT_NAME    = ACS3
OBJECT_ID      = 2024-077B
CENTER_NAME    = EARTH
REF_FRAME      = TEME
TIME_SYSTEM    = UTC
MEAN_ELEMENT_THEORY = SGP/SGP4

EPOCH          = 2026-03-01T20:44:47.235840
MEAN_MOTION    = 13.89211455
ECCENTRICITY   = .00542386
INCLINATION    = 97.2115
RA_OF_ASC_NODE = 3.7356
ARG_OF_PERICENTER = 97.9602
MEAN_ANOMALY   = 262.7722

EPHEMERIS_TYPE = 0
CLASSIFICATION_TYPE = U
NORAD_CAT_ID   = 59588
ELEMENT_SET_NO = 999
REV_AT_EPOCH   = 9311
BSTAR          = .18761931E-1
MEAN_MOTION_DOT = .23121E-3
MEAN_MOTION_DDOT = 0

CCSDS_OMM_VERS = 2.0
CREATION_DATE  = 
ORIGINATOR     = 

OBJECT_NAME    = SZ-21 MODULE
OBJECT_ID      = 2025-246C
CENTER_NAME    = EARTH
REF_FRAME      = TEME
TIME_SYSTEM    = UTC
MEAN_ELEMENT_THEORY = SGP/SGP4

EPOCH          = 2026-03-01T14:29:05.135424
MEAN_MOTION    = 15.67828728
ECCENTRICITY   = .00014678
INCLINATION    = 41.4736
RA_OF_ASC_NODE = 253.1136
ARG_OF_PERICENTER = 286.2005
MEAN_ANOMALY   = 73.8675

EPHEMERIS_TYPE = 0
CLASSIFICATION_TYPE = U
NORAD_CAT_ID   = 66515
ELEMENT_SET_NO = 999
REV_AT_EPOCH   = 1680
BSTAR          = .35054797E-3
MEAN_MOTION_DOT = .3957E-3
MEAN_MOTION_DDOT = 0

