GSLV R/B                
1 54149U 22138AN  26060.83168087  .00004597  00000+0  39841-3 0  9996
2 54149  87.3881 168.9916 0021857 173.9903 186.1596 14.96704323182753
XRISM                   
1 57800U 23137A   26060.98003141  .00007068  00000+0  40252-3 0  9992
2 57800  31.0034 333.5263 0008233 321.1150  38.8896 15.11390395136624
ACS3                    
1 59588U 24077B   26060.86443560  .00023121  00000+0  18762-1 0  9998
2 59588  97.2115   3.7356 0054238  97.9602 262.7722 13.89211455 93112
SZ-21 MODULE            
1 66515U 25246C   26060.60353166  .00039570  00000+0  35055-3 0  9990
2 66515  41.4736 253.1136 0001467 286.2005  73.8675 15.67828728 16807
